<?xml version="1.0" encoding="UTF-8"?>
<kml xmlns="http://www.opengis.net/kml/2.2" xmlns:gx="http://www.google.com/kml/ext/2.2" xmlns:kml="http://www.opengis.net/kml/2.2" xmlns:atom="http://www.w3.org/2005/Atom">
<Document>
	<name>POLIGONOS COLIMA.kmz</name>
	<StyleMap id="msn_ylw-pushpin">
		<Pair>
			<key>normal</key>
			<styleUrl>#sn_ylw-pushpin3</styleUrl>
		</Pair>
		<Pair>
			<key>highlight</key>
			<styleUrl>#sh_ylw-pushpin0</styleUrl>
		</Pair>
	</StyleMap>
	<StyleMap id="msn_ylw-pushpin2">
		<Pair>
			<key>normal</key>
			<styleUrl>#sn_ylw-pushpin2</styleUrl>
		</Pair>
		<Pair>
			<key>highlight</key>
			<styleUrl>#sh_ylw-pushpin</styleUrl>
		</Pair>
	</StyleMap>
	<StyleMap id="msn_ylw-pushpin3">
		<Pair>
			<key>normal</key>
			<styleUrl>#sn_ylw-pushpin</styleUrl>
		</Pair>
		<Pair>
			<key>highlight</key>
			<styleUrl>#sh_ylw-pushpin4</styleUrl>
		</Pair>
	</StyleMap>
	<Style id="sh_ylw-pushpin">
		<IconStyle>
			<scale>1.3</scale>
			<Icon>
				<href>http://maps.google.com/mapfiles/kml/pushpin/ylw-pushpin.png</href>
			</Icon>
			<hotSpot x="20" y="2" xunits="pixels" yunits="pixels"/>
		</IconStyle>
		<LineStyle>
			<color>ff0000ff</color>
			<width>4</width>
		</LineStyle>
		<PolyStyle>
			<color>ff0000ff</color>
		</PolyStyle>
	</Style>
	<Style id="sh_ylw-pushpin0">
		<IconStyle>
			<scale>1.3</scale>
			<Icon>
				<href>http://maps.google.com/mapfiles/kml/pushpin/ylw-pushpin.png</href>
			</Icon>
			<hotSpot x="20" y="2" xunits="pixels" yunits="pixels"/>
		</IconStyle>
		<LineStyle>
			<color>ff0055ff</color>
			<width>4</width>
		</LineStyle>
		<PolyStyle>
			<color>ff0055ff</color>
			<fill>0</fill>
		</PolyStyle>
	</Style>
	<Style id="sh_ylw-pushpin4">
		<IconStyle>
			<scale>1.3</scale>
			<Icon>
				<href>http://maps.google.com/mapfiles/kml/pushpin/ylw-pushpin.png</href>
			</Icon>
			<hotSpot x="20" y="2" xunits="pixels" yunits="pixels"/>
		</IconStyle>
		<LineStyle>
			<color>ff00ffff</color>
			<width>4</width>
		</LineStyle>
		<PolyStyle>
			<color>ff00ffff</color>
			<fill>0</fill>
		</PolyStyle>
	</Style>
	<Style id="sn_ylw-pushpin">
		<IconStyle>
			<scale>1.1</scale>
			<Icon>
				<href>http://maps.google.com/mapfiles/kml/pushpin/ylw-pushpin.png</href>
			</Icon>
			<hotSpot x="20" y="2" xunits="pixels" yunits="pixels"/>
		</IconStyle>
		<LineStyle>
			<color>ff00ffff</color>
			<width>4</width>
		</LineStyle>
		<PolyStyle>
			<color>ff00ffff</color>
			<fill>0</fill>
		</PolyStyle>
	</Style>
	<Style id="sn_ylw-pushpin2">
		<IconStyle>
			<scale>1.1</scale>
			<Icon>
				<href>http://maps.google.com/mapfiles/kml/pushpin/ylw-pushpin.png</href>
			</Icon>
			<hotSpot x="20" y="2" xunits="pixels" yunits="pixels"/>
		</IconStyle>
		<LineStyle>
			<color>ff0000ff</color>
			<width>4</width>
		</LineStyle>
		<PolyStyle>
			<color>ff0000ff</color>
		</PolyStyle>
	</Style>
	<Style id="sn_ylw-pushpin3">
		<IconStyle>
			<scale>1.1</scale>
			<Icon>
				<href>http://maps.google.com/mapfiles/kml/pushpin/ylw-pushpin.png</href>
			</Icon>
			<hotSpot x="20" y="2" xunits="pixels" yunits="pixels"/>
		</IconStyle>
		<LineStyle>
			<color>ff0055ff</color>
			<width>4</width>
		</LineStyle>
		<PolyStyle>
			<color>ff0055ff</color>
			<fill>0</fill>
		</PolyStyle>
	</Style>
	<Folder>
		<name>POLIGONOS COLIMA</name>
		<Placemark>
			<name>POLIGONO 1</name>
			<styleUrl>#msn_ylw-pushpin3</styleUrl>
			<Polygon>
				<tessellate>1</tessellate>
				<outerBoundaryIs>
					<LinearRing>
						<coordinates>
							-103.7295207320168,19.22911447975252,0 -103.7299371398677,19.22771181504255,0 -103.7294367105447,19.22767960126901,0 -103.7292322233628,19.22885237012621,0 -103.7290851102621,19.22882920702828,0 -103.7290530693611,19.22902944191615,0 -103.7295207320168,19.22911447975252,0 
						</coordinates>
					</LinearRing>
				</outerBoundaryIs>
			</Polygon>
		</Placemark>
		<Placemark>
			<name>POLIGONO 2</name>
			<styleUrl>#msn_ylw-pushpin2</styleUrl>
			<Polygon>
				<tessellate>1</tessellate>
				<outerBoundaryIs>
					<LinearRing>
						<coordinates>
							-103.7299696699472,19.22759907830756,0 -103.7300545249501,19.22734982229139,0 -103.7297439196654,19.22738911985479,0 -103.7295127157871,19.22756235175306,0 -103.7299696699472,19.22759907830756,0 
						</coordinates>
					</LinearRing>
				</outerBoundaryIs>
			</Polygon>
		</Placemark>
		<Placemark>
			<name>POLIGONO 3</name>
			<styleUrl>#msn_ylw-pushpin</styleUrl>
			<Polygon>
				<tessellate>1</tessellate>
				<outerBoundaryIs>
					<LinearRing>
						<coordinates>
							-103.7290685318611,19.2288114550559,0 -103.7292221853843,19.2288373152443,0 -103.7294236380311,19.22769238083318,0 -103.7293041116275,19.22767286756076,0 -103.7291697934455,19.22766914908712,0 -103.7290095873344,19.22767011516243,0 -103.7290067295086,19.22767003603995,0 -103.7289389881356,19.22773297821642,0 -103.7288864577761,19.22776663337815,0 -103.7288159423997,19.22782679780737,0 -103.7287555174365,19.22793045324784,0 -103.7286743333883,19.22805784032607,0 -103.7286073546007,19.22818832133677,0 -103.7285492844447,19.22830824603915,0 -103.7284992010236,19.22844729696192,0 -103.728366156318,19.22858675145334,0 -103.7282540381077,19.22869707745718,0 -103.7281247724295,19.22880692875277,0 -103.7279681851209,19.22887551264727,0 -103.7279428074342,19.22895583210062,0 -103.7280424133802,19.22897209392282,0 -103.728438816778,19.22901007767201,0 -103.7287539344527,19.22899449641923,0 -103.7290472875044,19.22903502787606,0 -103.7290685318611,19.2288114550559,0 
						</coordinates>
					</LinearRing>
				</outerBoundaryIs>
			</Polygon>
		</Placemark>
		<atom:link rel="app" href="https://www.google.com/earth/about/versions/#earth-pro" title="Google Earth Pro 7.3.7.1327"></atom:link>
	</Folder>
</Document>
</kml>
